{
  "links" : {
    "next" : "https://api.nasa.gov/neo/rest/v1/feed?start_date=2012-11-09&end_date=2012-11-09&detailed=true&api_key=t0TVs3DtDT2H8Oy2Zy8m2eVrNsAVKAexjcZXUckd",
    "prev" : "https://api.nasa.gov/neo/rest/v1/feed?start_date=2012-11-07&end_date=2012-11-07&detailed=true&api_key=t0TVs3DtDT2H8Oy2Zy8m2eVrNsAVKAexjcZXUckd",
    "self" : "https://api.nasa.gov/neo/rest/v1/feed?start_date=2012-11-08&end_date=2012-11-08&detailed=true&api_key=t0TVs3DtDT2H8Oy2Zy8m2eVrNsAVKAexjcZXUckd"
  },
  "element_count" : 10,
  "near_earth_objects" : {
    "2012-11-08" : [ {
      "links" : {
        "self" : "https://api.nasa.gov/neo/rest/v1/neo/3378561?api_key=t0TVs3DtDT2H8Oy2Zy8m2eVrNsAVKAexjcZXUckd"
      },
      "neo_reference_id" : "3378561",
      "name" : "(2007 MG)",
      "nasa_jpl_url" : "http://ssd.jpl.nasa.gov/sbdb.cgi?sstr=3378561",
      "absolute_magnitude_h" : 20.9,
      "estimated_diameter" : {
        "kilometers" : {
          "estimated_diameter_min" : 0.1756123185,
          "estimated_diameter_max" : 0.3926810818
        },
        "meters" : {
          "estimated_diameter_min" : 175.6123184804,
          "estimated_diameter_max" : 392.6810818086
        },
        "miles" : {
          "estimated_diameter_min" : 0.1091204019,
          "estimated_diameter_max" : 0.2440006365
        },
        "feet" : {
          "estimated_diameter_min" : 576.1559189633,
          "estimated_diameter_max" : 1288.3238004408
        }
      },
      "is_potentially_hazardous_asteroid" : false,
      "close_approach_data" : [ {
        "close_approach_date" : "2012-11-08",
        "epoch_date_close_approach" : 1352361600000,
        "relative_velocity" : {
          "kilometers_per_second" : "28.4861397773",
          "kilometers_per_hour" : "102550.1031983671",
          "miles_per_hour" : "63720.6460678965"
        },
        "miss_distance" : {
          "astronomical" : "0.4042735114",
          "lunar" : "157.2623901367",
          "kilometers" : "60478456",
          "miles" : "37579572"
        },
        "orbiting_body" : "Earth"
      } ],
      "orbital_data" : {
        "orbit_id" : "20",
        "orbit_determination_date" : "2017-06-21 06:17:20",
        "orbit_uncertainty" : "0",
        "minimum_orbit_intersection" : ".102553",
        "jupiter_tisserand_invariant" : "4.875",
        "epoch_osculation" : "2458000.5",
        "eccentricity" : ".4675897330484522",
        "semi_major_axis" : "1.275017273864446",
        "inclination" : "24.87362965709096",
        "ascending_node_longitude" : "258.358105433953",
        "orbital_period" : "525.8628971794345",
        "perihelion_distance" : ".6788322871460044",
        "perihelion_argument" : "248.2143430882032",
        "aphelion_distance" : "1.871202260582887",
        "perihelion_time" : "2457862.218034274812",
        "mean_anomaly" : "94.66632448891185",
        "mean_motion" : ".6845890857311445",
        "equinox" : "J2000"
      }
    }, {
      "links" : {
        "self" : "https://api.nasa.gov/neo/rest/v1/neo/3617078?api_key=t0TVs3DtDT2H8Oy2Zy8m2eVrNsAVKAexjcZXUckd"
      },
      "neo_reference_id" : "3617078",
      "name" : "(2012 VE26)",
      "nasa_jpl_url" : "http://ssd.jpl.nasa.gov/sbdb.cgi?sstr=3617078",
      "absolute_magnitude_h" : 28.4,
      "estimated_diameter" : {
        "kilometers" : {
          "estimated_diameter_min" : 0.0055533491,
          "estimated_diameter_max" : 0.0124176661
        },
        "meters" : {
          "estimated_diameter_min" : 5.5533491158,
          "estimated_diameter_max" : 12.4176661257
        },
        "miles" : {
          "estimated_diameter_min" : 0.0034506901,
          "estimated_diameter_max" : 0.0077159776
        },
        "feet" : {
          "estimated_diameter_min" : 18.2196499131,
          "estimated_diameter_max" : 40.740375732
        }
      },
      "is_potentially_hazardous_asteroid" : false,
      "close_approach_data" : [ {
        "close_approach_date" : "2012-11-08",
        "epoch_date_close_approach" : 1352361600000,
        "relative_velocity" : {
          "kilometers_per_second" : "18.9011050743",
          "kilometers_per_hour" : "68043.9782675516",
          "miles_per_hour" : "42279.8819407462"
        },
        "miss_distance" : {
          "astronomical" : "0.0042206669",
          "lunar" : "1.641839385",
          "kilometers" : "631402.75",
          "miles" : "392335.5"
        },
        "orbiting_body" : "Earth"
      } ],
      "orbital_data" : {
        "orbit_id" : "4",
        "orbit_determination_date" : "2017-04-06 08:48:07",
        "orbit_uncertainty" : "8",
        "minimum_orbit_intersection" : ".00115799",
        "jupiter_tisserand_invariant" : "4.132",
        "epoch_osculation" : "2456238.5",
        "eccentricity" : ".6332095866122524",
        "semi_major_axis" : "1.587013387108915",
        "inclination" : "3.57649333395055",
        "ascending_node_longitude" : "44.57930402425818",
        "orbital_period" : "730.2462109308777",
        "perihelion_distance" : ".5821012963095685",
        "perihelion_argument" : "94.72394201257006",
        "aphelion_distance" : "2.591925477908262",
        "perihelion_time" : "2456289.065134938372",
        "mean_anomaly" : "335.0721766092984",
        "mean_motion" : ".492984413491296",
        "equinox" : "J2000"
      }
    }, {
      "links" : {
        "self" : "https://api.nasa.gov/neo/rest/v1/neo/3618025?api_key=t0TVs3DtDT2H8Oy2Zy8m2eVrNsAVKAexjcZXUckd"
      },
      "neo_reference_id" : "3618025",
      "name" : "(2012 VF82)",
      "nasa_jpl_url" : "http://ssd.jpl.nasa.gov/sbdb.cgi?sstr=3618025",
      "absolute_magnitude_h" : 20.7,
      "estimated_diameter" : {
        "kilometers" : {
          "estimated_diameter_min" : 0.1925550782,
          "estimated_diameter_max" : 0.4305662442
        },
        "meters" : {
          "estimated_diameter_min" : 192.5550781879,
          "estimated_diameter_max" : 430.566244241
        },
        "miles" : {
          "estimated_diameter_min" : 0.1196481415,
          "estimated_diameter_max" : 0.2675413778
        },
        "feet" : {
          "estimated_diameter_min" : 631.7424027221,
          "estimated_diameter_max" : 1412.6189567557
        }
      },
      "is_potentially_hazardous_asteroid" : false,
      "close_approach_data" : [ {
        "close_approach_date" : "2012-11-08",
        "epoch_date_close_approach" : 1352361600000,
        "relative_velocity" : {
          "kilometers_per_second" : "14.2443525677",
          "kilometers_per_hour" : "51279.6692436023",
          "miles_per_hour" : "31863.192258615"
        },
        "miss_distance" : {
          "astronomical" : "0.2365259442",
          "lunar" : "92.0085906982",
          "kilometers" : "35383776",
          "miles" : "21986460"
        },
        "orbiting_body" : "Earth"
      } ],
      "orbital_data" : {
        "orbit_id" : "15",
        "orbit_determination_date" : "2017-04-06 08:47:56",
        "orbit_uncertainty" : "3",
        "minimum_orbit_intersection" : ".217789",
        "jupiter_tisserand_invariant" : "4.630",
        "epoch_osculation" : "2458000.5",
        "eccentricity" : ".1432368299924542",
        "semi_major_axis" : "1.399857018716399",
        "inclination" : "27.17406043169901",
        "ascending_node_longitude" : "230.7525908325071",
        "orbital_period" : "604.956218875118",
        "perihelion_distance" : "1.199345936912775",
        "perihelion_argument" : "160.1876889612844",
        "aphelion_distance" : "1.600368100520024",
        "perihelion_time" : "2458041.542393102504",
        "mean_anomaly" : "335.5763127051155",
        "mean_motion" : ".5950843858906016",
        "equinox" : "J2000"
      }
    } ]
  }
}